*******************************************************************************
Revised: Jul 31, 2013                  Earth                                399
 
PHYSICAL PROPERTIES (revised Sep 18, 2013):
 Mean radius, km          = 6371.01+-0.01   Mass, 10^24 kg = 5.97219+-0.0006
 Equ. radius, km          = 6378.14+-0.01   Mass layers:
 Polar axis, km           = 6356.752          Atmos          = 5.1   x 10^18 kg
 Flattening               = 1/298.257         oceans         = 1.4   x 10^21 kg
 Density, gm cm^-3        = 5.515             crust          = 2.6   x 10^22 kg
 J2  (GEM T2, 1990)       = 0.0010826265      mantle         = 4.043 x 10^24 kg
 gp, m s^-2 (polar)       = 9.8321863685      outer core     = 1.835 x 10^24 kg
 ge, m s^-2 (equatorial)  = 9.7803267715      inner core     = 9.675 x 10^22 kg
 go, m s^-2               = 9.82022         Fluid core rad   = 3480 km
 GM, km^3 s^-2            = 398600.440      Inner core rad   = 1215 km
 Mean rot. rate, rad s^-1 = 7.292115*10^-5  Surface Area:
 Sidereal period, hr      = 23.93419          land           = 1.48 x 10^8 km
 Mean solar day, days     = 1.002738          sea            = 3.62 x 10^8 km
 Moment of inertia        = 0.3308          Love no., k2     = 0.299
 Mean Temperature, K      = 270             Atm. pressure    = 1.0 bar
 Solar constant, W/m^2    = 1367.6          Vis. mag. V(1,0) = -3.86
 Volume, 10^10 km^3       = 108.321         Geometric albedo = 0.367 

DYNAMICAL CHARACTERISTICS:
 Obliquity to orbit, deg  = 23.45           Sidereal period  = 1.0000174  yrs
 Orbit velocity, km s^-1  = 29.7859         Sidereal period  = 365.25636  days
 Mean daily motion, n     = 0.9856474 deg/d Escape velocity  = 11.186 km s^-1
 Hill's sphere radius     = 234.9           Magnetic moment  = 0.61 gauss Rp^3
*******************************************************************************
 
 
*******************************************************************************
Ephemeris / WWW_USER Sun Jan  8 18:54:21 2017 Pasadena, USA      / Horizons    
*******************************************************************************
Target body name: Earth (399)                     {source: DE431mx}
Center body name: Solar System Barycenter (0)     {source: DE431mx}
Center-site name: BODY CENTER
*******************************************************************************
Start time      : A.D. 1970-Jan-01 00:00:00.0000 TDB
Stop  time      : A.D. 2100-Jan-01 00:00:00.0000 TDB
Step-size       : 1 calendar years
*******************************************************************************
Center geodetic : 0.00000000,0.00000000,0.0000000 {E-lon(deg),Lat(deg),Alt(km)}
Center cylindric: 0.00000000,0.00000000,0.0000000 {E-lon(deg),Dxy(km),Dz(km)}
Center radii    : (undefined)                                                  
Output units    : KM-S                                                         
Output type     : GEOMETRIC cartesian states
Output format   : 2 (position and velocity)
Reference frame : ICRF/J2000.0                                                 
Coordinate systm: Ecliptic and Mean Equinox of Reference Epoch                 
*******************************************************************************
            JDTDB,            Calendar Date (TDB),                      X,                      Y,                      Z,                     VX,                     VY,                     VZ,
**************************************************************************************************************************************************************************************************
$$SOE
2440587.500000000, A.D. 1970-Jan-01 00:00:00.0000, -2.636314250687937E+07,  1.448755934863529E+08,  5.775629234984517E+02, -2.977359332571185E+01, -5.558856867535258E+00,  4.295648228174187E-04,
2440952.500000000, A.D. 1971-Jan-01 00:00:00.0000, -2.588341510653936E+07,  1.452393331995936E+08,  2.438135835126042E+03, -2.980754537473631E+01, -5.451966545975040E+00, -1.593541931332210E-03,
2441317.500000000, A.D. 1972-Jan-01 00:00:00.0000, -2.549011035437799E+07,  1.454629753027623E+08,  7.225632585324347E+03, -2.981530178047805E+01, -5.309111127243683E+00,  6.827873379950944E-04,
2441683.500000000, A.D. 1973-Jan-01 00:00:00.0000, -2.771302459890725E+07,  1.450550518113323E+08,  1.356035377027094E+04, -2.976587603123582E+01, -5.699303261247933E+00, -1.123036671633937E-03,
2442048.500000000, A.D. 1974-Jan-01 00:00:00.0000, -2.728425788474048E+07,  1.449444635093625E+08,  1.740495788987726E+04, -2.977496369006782E+01, -5.586981924151137E+00, -3.089743949615809E-04,
2442413.500000000, A.D. 1975-Jan-01 00:00:00.0000, -2.667769613244626E+07,  1.447178335390190E+08,  1.895216998989880E+04, -2.978468785411483E+01, -5.433036339514266E+00, -3.268800462907784E-05,
2442778.500000000, A.D. 1976-Jan-01 00:00:00.0000, -2.588325307445607E+07,  1.444852565308977E+08,  1.387108420117944E+04, -2.982340859258045E+01, -5.308225959257082E+00, -1.456084096124188E-03,
2443144.500000000, A.D. 1977-Jan-01 00:00:00.0000, -2.746389220102401E+07,  1.438867088067813E+08,  5.519895606942475E+03, -2.972619756094964E+01, -5.696784787681740E+00,  2.316413169713982E-04,
2443509.500000000, A.D. 1978-Jan-01 00:00:00.0000, -2.637123807921768E+07,  1.439826520621328E+08, -6.392007111087441E+03, -2.975767306830661E+01, -5.537506060244055E+00, -1.835738746519322E-03,
2443874.500000000, A.D. 1979-Jan-01 00:00:00.0000, -2.531049523065777E+07,  1.442897249412992E+08, -1.876230077951401E+04, -2.979625273403389E+01, -5.418793465140412E+00,  1.226932086191290E-04,
2444239.500000000, A.D. 1980-Jan-01 00:00:00.0000, -2.436394452184461E+07,  1.447584791132984E+08, -2.764994581660628E+04, -2.980290252108022E+01, -5.273421376860107E+00, -1.016164021318433E-03,
2444605.500000000, A.D. 1981-Jan-01 00:00:00.0000, -2.618952635612575E+07,  1.448675915229293E+08, -3.415434226636589E+04, -2.975791856060700E+01, -5.649464233681488E+00, -4.686805096709712E-04,
2444970.500000000, A.D. 1982-Jan-01 00:00:00.0000, -2.564647729646292E+07,  1.454434612845352E+08, -3.403017396715283E+04, -2.978441858100786E+01, -5.537406324211359E+00,  3.709602317401028E-04,
2445335.500000000, A.D. 1983-Jan-01 00:00:00.0000, -2.527083534877973E+07,  1.459208309179831E+08, -3.049641893756390E+04, -2.980026027712687E+01, -5.389505460525064E+00, -1.205268856259378E-03,
2445700.500000000, A.D. 1984-Jan-01 00:00:00.0000, -2.503353417205774E+07,  1.462383618955257E+08, -2.246544531406462E+04, -2.985105034715123E+01, -5.265758409321355E+00,  1.157474606262143E-03,
2446066.500000000, A.D. 1985-Jan-01 00:00:00.0000, -2.739956939475263E+07,  1.458701691200472E+08, -1.193834626289457E+04, -2.976221215761028E+01, -5.672803560047890E+00, -9.085437760196768E-04,
2446431.500000000, A.D. 1986-Jan-01 00:00:00.0000, -2.711072051271158E+07,  1.457870485946155E+08, -3.118689837522805E+03, -2.978292322216900E+01, -5.523395824832978E+00,  5.840721033658625E-04,
2446796.500000000, A.D. 1987-Jan-01 00:00:00.0000, -2.666237151298454E+07,  1.455620876488673E+08,  4.046394598111510E+03, -2.981796039575225E+01, -5.408709163457472E+00, -1.667310993738180E-04,
2447161.500000000, A.D. 1988-Jan-01 00:00:00.0000, -2.599633472917880E+07,  1.452959758941506E+08,  5.508804642006755E+03, -2.981182842779797E+01, -5.273509431404987E+00, -6.550883214908598E-04,
2447527.500000000, A.D. 1989-Jan-01 00:00:00.0000, -2.771849999687228E+07,  1.446734135063898E+08,  4.039009505711496E+03, -2.975136965789145E+01, -5.640573589712260E+00,  3.973485182315883E-04,
2447892.500000000, A.D. 1990-Jan-01 00:00:00.0000, -2.677205835816003E+07,  1.447001321530803E+08, -9.013972341343760E+02, -2.977727541072503E+01, -5.521956671493925E+00, -1.528240167464112E-03,
2448257.500000000, A.D. 1991-Jan-01 00:00:00.0000, -2.583059950778974E+07,  1.449054147876233E+08, -5.939300849072635E+03, -2.978394243234147E+01, -5.369777889970416E+00,  8.665099299525192E-04,
2448622.500000000, A.D. 1992-Jan-01 00:00:00.0000, -2.501219485805725E+07,  1.452607483758041E+08, -8.862279315359890E+03, -2.983504343931608E+01, -5.229366622904705E+00, -9.161053338708758E-04,
2448988.500000000, A.D. 1993-Jan-01 00:00:00.0000, -2.693257786117030E+07,  1.452067622671991E+08, -9.340276221670210E+03, -2.975810119392334E+01, -5.634446089087578E+00,  3.452245575235047E-04,
2449353.500000000, A.D. 1994-Jan-01 00:00:00.0000, -2.644069708318792E+07,  1.456071380123490E+08, -4.822701920308173E+03, -2.978144727970119E+01, -5.482268599783851E+00,  3.683611308713530E-04,
2449718.500000000, A.D. 1995-Jan-01 00:00:00.0000, -2.609673919128544E+07,  1.459009176991571E+08,  1.829883039802313E+03, -2.983209681175753E+01, -5.364280728797462E+00, -5.732936856717163E-04,
2450083.500000000, A.D. 1996-Jan-01 00:00:00.0000, -2.582715266949825E+07,  1.460108490938725E+08,  1.235246640378982E+04, -2.983641344025699E+01, -5.243333909034063E+00,  1.204229443798832E-03,
2450449.500000000, A.D. 1997-Jan-01 00:00:00.0000, -2.811914754997918E+07,  1.454676493607863E+08,  2.250146848068386E+04, -2.977222173533460E+01, -5.617220988651560E+00, -8.341263106670382E-04,
2450814.500000000, A.D. 1998-Jan-01 00:00:00.0000, -2.772298924285709E+07,  1.452192119967922E+08,  3.027798669454455E+04, -2.980039706403488E+01, -5.507155482565541E+00,  1.092184788581196E-03,
2451179.500000000, A.D. 1999-Jan-01 00:00:00.0000, -2.711444538328264E+07,  1.448524734902653E+08,  3.393685671290755E+04, -2.979379442076271E+01, -5.367403182606365E+00, -5.805878884606042E-04,
2451544.500000000, A.D. 2000-Jan-01 00:00:00.0000, -2.627892928682480E+07,  1.445102393586391E+08,  3.022818135935813E+04, -2.983052803283506E+01, -5.220465685407924E+00, -1.014621798034465E-04,
2451910.500000000, A.D. 2001-Jan-01 00:00:00.0000, -2.782588516572298E+07,  1.438414801340805E+08,  2.323875108210742E+04, -2.975122533379769E+01, -5.622821482816653E+00,  1.663775153062375E-04,
